ONEWEB-0264             
1 48982U 21060R   23286.86314606 -.00000031  00000+0 -11531-3 0  9994
2 48982  87.9051  63.2957 0001693  94.6303 265.5022 13.16593292110992
ONEWEB-0266             
1 48984U 21060T   23286.88530391 -.00000067  00000+0 -20947-3 0  9999
2 48984  87.9045  63.2772 0001504  96.9697 263.1605 13.16594478110981
ONEWEB-0267             
1 48985U 21060U   23286.89586362  .00000072  00000+0  15533-3 0  9999
2 48985  87.9045  63.2762 0001999  85.2190 274.9169 13.16596050110992
ONEWEB-0268             
1 48986U 21060V   23286.86418604 -.00003254  00000+0 -85462-2 0  9994
2 48986  87.9047  63.2853 0001917 106.1656 253.9686 13.16606149111258
ONEWEB-0269             
1 48987U 21060W   23286.92120730  .00000138  00000+0  32742-3 0  9992
2 48987  87.9055  63.3028 0001640 100.3644 259.7672 13.16593614111036
ONEWEB-0270             
1 48988U 21060X   23286.86209230 -.00001492  00000+0 -39356-2 0  9992
2 48988  87.9048  63.2999 0001926  67.3740 292.7595 13.16600079111069
ONEWEB-0271             
1 48989U 21060Y   23286.92540251  .00000014  00000+0  35569-5 0  9993
2 48989  87.9045  63.2621 0001925  81.6886 278.4463 13.16597728111070
ONEWEB-0272             
1 48990U 21060Z   23286.87263382 -.00000083  00000+0 -25125-3 0  9999
2 48990  87.9049  63.2972 0001867  85.9911 274.1433 13.16596267111017
